IRIDIUM 33 DEB          
1 36012U 97051UT  26066.01185428  .00004409  00000+0  16095-2 0  9992
2 36012  86.4394 273.5082 0217265 353.8661   5.9871 14.20587065666804
IRIDIUM 33 DEB          
1 36028U 97051VK  26060.88947523  .00025841  00000+0  20734-2 0  9998
2 36028  86.3146 269.3331 0017594 119.5716 240.7272 14.99842236883092
IRIDIUM 33 DEB          
1 36080U 97051VM  26056.50340220  .00001938  00000+0  52714-3 0  9996
2 36080  86.3236 335.4170 0014825 275.8181  84.1332 14.47006283484958
IRIDIUM 33 DEB          
1 36083U 97051VQ  26066.50639528  .00003021  00000+0  88279-3 0  9992
2 36083  86.3489 357.6566 0024674 310.3764  49.5283 14.43606913866722
IRIDIUM 33 DEB          
1 36390U 97051VU  26060.28946878  .00006003  00000+0  88857-3 0  9996
2 36390  86.2859 263.3476 0027954 255.4751 104.3366 14.74753978674193
IRIDIUM 33 DEB          
1 36483U 97051VZ  26056.63614572  .00001873  00000+0  51909-3 0  9994
2 36483  86.3812  20.4101 0007000 234.8466 125.2081 14.46131522662284
IRIDIUM 33 DEB          
1 36490U 97051WG  26066.16861064  .00012912  00000+0  17537-2 0  9995
2 36490  86.3669 332.3187 0005085  96.5932 263.5868 14.78747283877316
IRIDIUM 33 DEB          
1 36493U 97051WK  26063.50145132  .00011049  00000+0  19814-2 0  9994
2 36493  86.3608 335.3291 0013086  70.4596 289.8030 14.66622153757165
IRIDIUM 33 DEB          
1 37548U 97051XH  26058.61648586  .00004301  00000+0  10559-2 0  9993
2 37548  86.3541   9.8892 0022794 300.6162  59.2795 14.52027279666479
IRIDIUM 33 DEB          
1 37550U 97051XK  26065.52693406  .00009537  00000+0  16317-2 0  9999
2 37550  86.3812 346.7063 0003075 133.2414 226.9058 14.68758002875623
IRIDIUM 33 DEB          
1 37562U 97051XX  26065.60284765  .00006576  00000+0  14380-2 0  9993
2 37562  86.3789   7.0040 0023162 177.3085 355.7044 14.57479355875493
IRIDIUM 33 DEB          
1 37565U 97051YA  26064.05125251  .00002598  00000+0  63776-3 0  9992
2 37565  86.3534 333.7257 0013044 155.5044 204.6784 14.51991247670314
IRIDIUM 33 DEB          
1 38017U 97051YD  26065.89620552  .00009019  00000+0  21135-2 0  9999
2 38017  86.3366 129.5426 0092093 182.1227 177.9602 14.51851287626220
IRIDIUM 33 DEB          
1 38022U 97051YJ  26065.48508312  .00004504  00000+0  13485-2 0  9992
2 38022  86.2727 339.7589 0045881 129.2237 231.3050 14.42063599704003
IRIDIUM 33 DEB          
1 38028U 97051YQ  26066.01702083  .00001333  00000+0  36380-3 0  9996
2 38028  86.3344 323.6279 0023004 198.9687 161.0661 14.46493889667130
IRIDIUM 33 DEB          
1 38228U 97051ZC  26062.61739645  .00001147  00000+0  45098-3 0  9993
2 38228  86.2987  14.0747 0062368 291.7038 192.3455 14.27439275859356
